STARLINK-31292          
1 59081U 24041H   26067.70285028  .00004415  00000+0  16992-3 0  9990
2 59081  43.0018 316.0203 0000626 271.5751  88.5029 15.27564444114110
BANDWAGON-2 OBJECT D    
1 62380U 24247D   26068.52261193  .00011259  00000+0  40119-3 0  9994
2 62380  44.9954 115.6710 0003488 351.1453   8.9368 15.29076102 67732
